NORAD_CAT_ID,OBJECT_NAME,OBJECT_TYPE,EPOCH,MEAN_MOTION,ECCENTRICITY,INCLINATION,RA_OF_ASC_NODE,ARG_OF_PERICENTER,MEAN_ANOMALY,BSTAR,MEAN_MOTION_DOT,MEAN_MOTION_DDOT,TLE_LINE0,TLE_LINE1,TLE_LINE2,SEMIMAJOR_AXIS,PERIOD,APOGEE,PERIGEE,DECAYED
52352.0,STARLINK-3838,PAYLOAD,2022-06-19 20:00:01,15.56533564,0.0001281999999999,53.2176,184.8166,48.2769,290.9372,-0.010785,-0.00713296,0.0,0 STARLINK-3838,1 52352U 22045X   22170.83334491 -.00713296  00000-0 -10785-1 0  9999,2 52352  53.2176 184.8166 0001282  48.2769 290.9372 15.56533564 10563,6775.835,92.513,398.569,396.832,0.0
52352.0,STARLINK-3838,PAYLOAD,2022-06-19 22:00:00,15.56406043,0.0001399,53.2173,184.4142,43.9455,42.4742,-0.010844,-0.00713764,0.0,0 STARLINK-3838,1 52352U 22045X   22170.91667824 -.00713764  00000-0 -10844-1 0  9993,2 52352  53.2173 184.4142 0001399  43.9455  42.4742 15.56406043  1307,6776.206,92.521,399.019,397.12300000000016,0.0
52352.0,STARLINK-3838,PAYLOAD,2022-06-20 14:00:01,15.55388363,0.0001437,53.2171,181.2024,54.4825,168.1978,-0.011311,-0.00716551,0.0,0 STARLINK-3838,1 52352U 22045X   22171.58334491 -.00716551  00000-0 -11311-1 0  9995,2 52352  53.2171 181.2024 0001437  54.4825 168.1978 15.55388363  1300,6779.161,92.581,402.0,400.052,0.0
52352.0,STARLINK-3838,PAYLOAD,2022-06-20 22:00:00,15.5487501,0.0001424,53.2174,179.5957,47.7991,242.0957,-0.011436,-0.00711296,0.0,0 STARLINK-3838,1 52352U 22045X   22171.91667824 -.00711296  00000-0 -11436-1 0  9990,2 52352  53.2174 179.5957 0001424  47.7991 242.0957 15.54875010 10727,6780.653,92.612,403.484,401.552,0.0
52352.0,STARLINK-3838,PAYLOAD,2022-06-21 14:00:01,15.53857063,0.0001359,53.2171,176.3914,45.4474,17.0312,-0.011908,-0.00713216,0.0,0 STARLINK-3838,1 52352U 22045X   22172.58334491 -.00713216  00000-0 -11908-1 0  9993,2 52352  53.2171 176.3914 0001359  45.4474  17.0312 15.53857063  1306,6783.614000000001,92.673,406.401,404.557,0.0
52352.0,STARLINK-3838,PAYLOAD,2022-06-21 22:00:00,15.53347013,0.0001489,53.2172,174.7884,46.6252,81.2286,-0.012159,-0.00714668,0.0,0 STARLINK-3838,1 52352U 22045X   22172.91667824 -.00714668  00000-0 -12159-1 0  9990,2 52352  53.2172 174.7884 0001489  46.6252  81.2286 15.53347013  1308,6785.099,92.703,407.974,405.954,0.0
52352.0,STARLINK-3838,PAYLOAD,2022-06-22 00:00:02,15.53218801,0.0001486999999999,53.2174,174.3882,54.3199,179.84599999999998,-0.012159,-0.00711608,0.0,0 STARLINK-3838,1 52352U 22045X   22173.00002315 -.00711608  00000-0 -12159-1 0  9990,2 52352  53.2174 174.3882 0001487  54.3199 179.8460 15.53218801 10892,6785.472,92.711,408.346,406.328,0.0
52352.0,STARLINK-3838,PAYLOAD,2022-06-22 14:00:01,15.52328661,0.0001351999999999,53.2172,171.5912,59.2813,197.4801,-0.012651,-0.00716345,0.0,0 STARLINK-3838,1 52352U 22045X   22173.58334491 -.00716345  00000-0 -12651-1 0  9996,2 52352  53.2172 171.5912 0001352  59.2813 197.4801 15.52328661  1307,6788.066,92.764,410.849,409.013,0.0
52352.0,STARLINK-3838,PAYLOAD,2022-06-22 22:00:00,15.51814772,0.0001384,53.2174,169.99200000000005,49.5024,270.7968,-0.012769,-0.00710265,0.0,0 STARLINK-3838,1 52352U 22045X   22173.91667824 -.00710265  00000-0 -12769-1 0  9997,2 52352  53.2174 169.9920 0001384  49.5024 270.7968 15.51814772  1301,6789.565,92.795,412.369,410.49,0.0
52352.0,STARLINK-3838,PAYLOAD,2022-06-23 06:00:00,15.51307715,0.0001638,53.2175,168.3977,36.4212,346.7982,-0.013084,-0.00723439,0.0,0 STARLINK-3838,1 52352U 22045X   22174.25001157 -.00723439  00000-0 -13084-1 0  9994,2 52352  53.2175 168.3977 0001638  36.4212 346.7982 15.51307715 11094,6791.044,92.825,414.021,411.797,0.0
52352.0,STARLINK-3838,PAYLOAD,2022-06-23 14:00:01,15.50799825,0.000132,53.2173,166.8021,54.3171,31.2122,-0.013437,-0.00729039,0.0,0 STARLINK-3838,1 52352U 22045X   22174.58334491 -.00729039  00000-0 -13437-1 0  9994,2 52352  53.2173 166.8021 0001320  54.3171  31.2122 15.50799825  1307,6792.526999999999,92.855,415.288,413.495,0.0
52352.0,STARLINK-3838,PAYLOAD,2022-06-23 22:00:00,15.50249757,0.0001504,53.2175,165.2065,57.9036,89.3201,-0.0066679,-0.00366448,0.0,0 STARLINK-3838,1 52352U 22045X   22174.91667824 -.00366448  00000-0 -66679-2 0  9998,2 52352  53.2175 165.2065 0001504  57.9036  89.3201 15.50249757 11197,6794.1330000000025,92.888,417.02,414.976,0.0
52352.0,STARLINK-3838,PAYLOAD,2022-06-24 14:00:01,15.49990586,0.0001584,53.215,162.0161,42.2869,227.083,-0.0026103,-0.00146415,0.0,0 STARLINK-3838,1 52352U 22045X   22175.58334491 -.00146415  00000-0 -26103-2 0  9991,2 52352  53.2150 162.0161 0001584  42.2869 227.0830 15.49990586 11292,6794.891,92.904,417.832,415.679,0.0
52352.0,STARLINK-3838,PAYLOAD,2022-06-24 22:00:01,15.49882587,0.0001591,53.2152,160.4211,55.1317,275.2897,0.0010149,0.0005757,0.0,0 STARLINK-3838,1 52352U 22045X   22175.91668981  .00057570  00000-0  10149-2 0  9996,2 52352  53.2152 160.4211 0001591  55.1317 275.2897 15.49882587 11357,6795.206,92.91,418.152,415.99,0.0
52352.0,STARLINK-3838,PAYLOAD,2022-06-25 06:00:00,15.50142467,0.0001652,53.2162,158.8326,42.0432,349.2169,-0.015841,-0.00830342,0.0,0 STARLINK-3838,1 52352U 22045X   22176.25001157 -.00830342  00000-0 -15841-1 0  9991,2 52352  53.2162 158.8326 0001652  42.0432 349.2169 15.50142467 11405,6794.446999999999,92.895,417.434,415.189,0.0
52352.0,STARLINK-3838,PAYLOAD,2022-06-25 14:00:01,15.49711292,0.000162,53.2167,157.24200000000005,45.8677,46.1821,-0.0096516,-0.00510822,0.0,0 STARLINK-3838,1 52352U 22045X   22176.58334491 -.00510822  00000-0 -96516-2 0  9994,2 52352  53.2167 157.2420 0001620  45.8677  46.1821 15.49711292 11454,6795.706999999999,92.921,418.673,416.471,0.0
52352.0,STARLINK-3838,PAYLOAD,2022-06-25 22:00:00,15.49343182,0.0001598,53.2173,155.6501,45.8608,106.6857,-0.013987,-0.0072117,0.0,0 STARLINK-3838,1 52352U 22045X   22176.91667824 -.00721170  00000-0 -13987-1 0  9990,2 52352  53.2173 155.6501 0001598  45.8608 106.6857 15.49343182 11507,6796.783,92.943,419.734,417.562,0.0
52352.0,STARLINK-3838,PAYLOAD,2022-06-26 14:00:01,15.48324813,0.000136,53.2173,152.4716,57.9548,213.9435,-0.014571,-0.00724451,0.0,0 STARLINK-3838,1 52352U 22045X   22177.58335648 -.00724451  00000-0 -14571-1 0  9995,2 52352  53.2173 152.4716 0001360  57.9548 213.9435 15.48324813  1304,6799.763000000001,93.004,422.55300000000005,420.703,0.0
52352.0,STARLINK-3838,PAYLOAD,2022-06-26 20:00:01,15.47940212,0.0001571,53.2172,151.2793,48.3135,177.6228,-0.014691,-0.00720931,0.0,0 STARLINK-3838,1 52352U 22045X   22177.83334491 -.00720931  00000-0 -14691-1 0  9990,2 52352  53.2172 151.2793 0001571  48.3135 177.6228 15.47940212 11645,6800.89,93.027,423.823,421.686,0.0
52352.0,STARLINK-3838,PAYLOAD,2022-06-26 22:00:00,15.47811486,0.0001431,53.2176,150.8827,47.9107,282.6493,-0.01469,-0.00717854,0.0,0 STARLINK-3838,1 52352U 22045X   22177.91667824 -.00717854  00000-0 -14690-1 0  9997,2 52352  53.2176 150.8827 0001431  47.9107 282.6493 15.47811486  1304,6801.267,93.035,424.105,422.158,0.0
52352.0,STARLINK-3838,PAYLOAD,2022-06-27 14:00:01,15.46793466,0.0001421,53.2174,147.7115,46.7998,39.3706,-0.015302,-0.0072137,0.0,0 STARLINK-3838,1 52352U 22045X   22178.58334491 -.00721370  00000-0 -15302-1 0  9991,2 52352  53.2174 147.7115 0001421  46.7998  39.3706 15.46793466  1301,6804.25,93.096,427.082,425.149,0.0
52352.0,STARLINK-3838,PAYLOAD,2022-06-27 22:00:00,15.4628253,0.0001718,53.2177,146.1263,40.1843,102.873,-0.01552,-0.00719017,0.0,0 STARLINK-3838,1 52352U 22045X   22178.91667824 -.00719017  00000-0 -15520-1 0  9994,2 52352  53.2177 146.1263 0001718  40.1843 102.8730 15.46282530 11812,6805.749,93.127,428.783,426.445,0.0
52352.0,STARLINK-3838,PAYLOAD,2022-06-28 14:00:01,15.45265353,0.0001482,53.2173,142.9621,52.8398,202.1512,-0.016209,-0.00724536,0.0,0 STARLINK-3838,1 52352U 22045X   22179.58334491 -.00724536  00000-0 -16209-1 0  9996,2 52352  53.2173 142.9621 0001482  52.8398 202.1512 15.45265353  1301,6808.735,93.188,431.61,429.591,0.0
52352.0,STARLINK-3838,PAYLOAD,2022-06-28 22:00:00,15.44752619,0.0001423,53.2176,141.3808,50.8146,259.2255,-0.01635,-0.00718545,0.0,0 STARLINK-3838,1 52352U 22045X   22179.91667824 -.00718545  00000-0 -16350-1 0  9992,2 52352  53.2176 141.3808 0001423  50.8146 259.2255 15.44752619  1300,6810.2419999999975,93.219,433.076,431.138,0.0
52352.0,STARLINK-3838,PAYLOAD,2022-06-29 06:00:00,15.44243999,0.0001624,53.2174,139.8034,39.7501,324.7772,-0.01672,-0.00721891,0.0,0 STARLINK-3838,1 52352U 22045X   22180.25001157 -.00721891  00000-0 -16720-1 0  9991,2 52352  53.2174 139.8034 0001624  39.7501 324.7772 15.44243999 12024,6811.736999999999,93.25,434.709,432.496,0.0
52352.0,STARLINK-3838,PAYLOAD,2022-06-29 14:00:01,15.43733102,0.0001445,53.2174,138.2239,45.9296,12.4215,-0.016977,-0.00720415,0.0,0 STARLINK-3838,1 52352U 22045X   22180.58334491 -.00720415  00000-0 -16977-1 0  9992,2 52352  53.2174 138.2239 0001445  45.9296  12.4215 15.43733102  1306,6813.24,93.28,436.09,434.121,0.0
52352.0,STARLINK-3838,PAYLOAD,2022-06-29 22:00:00,15.43221468,0.0001584,53.2175,136.6462,45.0587,66.503,-0.0171909999999999,-0.007172,0.0,0 STARLINK-3838,1 52352U 22045X   22180.91667824 -.00717200  00000-0 -17191-1 0  9995,2 52352  53.2175 136.6462 0001584  45.0587  66.5030 15.43221468  1307,6814.746,93.311,437.69,435.531,0.0
52352.0,STARLINK-3838,PAYLOAD,2022-06-30 14:00:01,15.4220447,0.0001479,53.2175,133.4965,53.4892,162.6524,-0.017928,-0.00722249,0.0,0 STARLINK-3838,1 52352U 22045X   22181.58334491 -.00722249  00000-0 -17928-1 0  9997,2 52352  53.2175 133.4965 0001479  53.4892 162.6524 15.42204470  1304,6817.7419999999975,93.373,440.615,438.598,0.0
52352.0,STARLINK-3838,PAYLOAD,2022-06-30 22:00:00,15.41692508,0.0001523,53.2175,131.9228,50.3353,217.1783,-0.018125,-0.00718063,0.0,0 STARLINK-3838,1 52352U 22045X   22181.91667824 -.00718063  00000-0 -18125-1 0  9992,2 52352  53.2175 131.9228 0001523  50.3353 217.1783 15.41692508  1302,6819.251,93.404,442.154,440.077,0.0
